OPTICUBE 04             
1 41851U 16067D   18256.30661020 -.00000130  00000-0 -60301-5 0  9990
2 41851  97.9220 345.5516 0008029 226.7242 133.3310 14.96699283100274
AEROCUBE 8D             
1 41852U 16067E   18256.82126404 -.00000139  00000-0 -69126-5 0  9993
2 41852  97.9241 345.9082 0008534 224.4195 135.6342 14.96548429100335
AEROCUBE 8C             
1 41853U 16067F   18257.23872476  .00000019  00000-0  69896-5 0  9996
2 41853  97.9232 346.2877 0009208 225.0212 135.0263 14.96507773100397
PROMETHEUS 2-1          
1 41854U 16067G   18256.50277129 -.00000004  00000-0  50013-5 0  9996
2 41854  97.9240 345.5748 0009504 227.4814 132.5604 14.96636892100283
PROMETHEUS 2-3          
1 41855U 16067H   18257.24094555  .00000297  00000-0  31337-4 0  9999
2 41855  97.9240 346.3289 0009747 225.0863 134.9568 14.96636331100395
ITF-2                   
1 41932U 98067KU  18257.20158468  .00079359  00000-0  35996-3 0  9994
2 41932  51.6291 240.0078 0002369 128.5199 231.6016 15.83203051 94832
WASEDA-SAT3             
1 41933U 98067KV  18257.15696563  .00283288  45357-4  50861-3 0  9996
2 41933  51.6280 225.9088 0003405 103.2202 256.9188 16.01155392 95017
AOBA-VELOX 3            
1 41935U 98067KX  18257.20334282  .00158511  20532-4  47277-3 0  9996
2 41935  51.6310 231.6627 0002987 105.8402 254.2934 15.92099356 95049
INS-1B                  
1 41954U 17008G   18256.61729652  .00001325  00000-0  58938-4 0  9997
2 41954  97.4381 319.8122 0010575  50.4911 309.7259 15.23225382 87464
BGUSAT                  
1 41999U 17008BD  18256.42936913  .00002295  00000-0  94972-4 0  9990
2 41999  97.4426 320.9588 0009931  67.0143 293.2141 15.24934614 86874
DIDO-2                  
1 42000U 17008BE  18256.61527224  .00001017  00000-0  45731-4 0  9996
2 42000  97.4397 320.2835 0010146  66.9883 293.2422 15.23363023 86862
PEASSS                  
1 42015U 17008BV  18256.74274151  .00001207  00000-0  52432-4 0  9991
2 42015  97.4396 320.9751 0008131  73.6028 286.6103 15.24204798 87405
AL-FARABI 1             
1 42016U 17008BW  18257.16936564  .00001638  00000-0  69196-4 0  9995
2 42016  97.4404 321.6650 0007976  72.5867 287.6242 15.24669903 87607
NAYIF-1 (EO-88)         
1 42017U 17008BX  18257.16217564  .00001624  00000-0  68565-4 0  9992
2 42017  97.4403 321.6654 0007956  72.7458 287.4650 15.24695053 87625
HAVELSAT                
1 42700U 98067LH  18257.18279809  .00053796  00000-0  33381-3 0  9991
2 42700  51.6289 258.0002 0000818 255.3950 104.6960 15.76470858 76032
CXBN-2                  
1 42704U 98067LM  18257.03968341  .00044318  00000-0  28203-3 0  9992
2 42704  51.6327 260.0763 0002190  90.0682 270.0569 15.75978019 75917
ICECUBE                 
1 42705U 98067LN  18257.18590696  .00318256  53133-4  64814-3 0  9995
2 42705  51.6459 242.3134 0001466 104.8099 255.3074 15.98946870 76227
PHOENIX                 
1 42706U 98067LP  18257.16885335  .00036028  00000-0  26362-3 0  9992
2 42706  51.6331 261.7032 0001530  89.3258 270.7916 15.72836545 75892
X-CUBESAT               
1 42707U 98067LQ  18257.18244713  .00065702  00000-0  38621-3 0  9996
2 42707  51.6310 257.1526 0001949  86.6028 273.5195 15.77612371 75946
QBEE50-LTU-OC           
1 42708U 98067LR  18257.18922385  .00051014  00000-0  32060-3 0  9997
2 42708  51.6309 258.8025 0001806  65.3790 294.7397 15.76202882 75882
ALTAIR PATHFINDER       
1 42711U 98067LS  18257.05034594  .00017932  00000-0  17188-3 0  9998
2 42711  51.6344 272.9641 0003294 134.6472 225.4793 15.66726817 75391
SHARC                   
1 42712U 98067LT  18257.08057310  .00031450  00000-0  27841-3 0  9991
2 42712  51.6354 273.9839 0001848 102.6872 257.4331 15.68325222 75621
ZA-AEROSAT              
1 42713U 98067LU  18257.21365117  .00037032  00000-0  28807-3 0  9999
2 42713  51.6329 264.9942 0002283 104.2395 255.8857 15.71370329 75516
LINK                    
1 42714U 98067LV  18257.14016866  .00702275  26104-3  88746-3 0  9998
2 42714  51.6170 240.7001 0003575  85.6061 274.5360 16.06892028 75933
CSUNSAT 1               
1 42715U 98067LW  18257.18717883  .00039610  00000-0  29477-3 0  9996
2 42715  51.6329 264.0866 0003228 118.5248 241.6075 15.72388513 75520
SPACECUBE               
1 42717U 98067LY  18257.22388023  .00055976  00000-0  35364-3 0  9998
2 42717  51.6276 258.9806 0000168  15.4846 344.6159 15.76044689 74969
HOOPOE                  
1 42718U 98067LZ  18257.18034789  .00086561  00000-0  43517-3 0  9994
2 42718  51.6274 254.1455 0001451  77.3291 282.7873 15.80960220 75029
NJUST-1                 
1 42722U 98067MB  18257.20651762  .00032749  00000-0  26861-3 0  9990
2 42722  51.6341 267.2337 0003132 197.4041 162.6850 15.70159306 74550
UNSW-ECO                
1 42723U 98067MC  18257.17900828  .00107195  00000-0  49193-3 0  9998
2 42723  51.6369 253.4823 0000981 115.1439 244.9666 15.82838457 74716
LILACSAT-1              
1 42725U 98067ME  18257.20441722  .00047642  00000-0  33125-3 0  9995
2 42725  51.6336 262.6925 0001677 189.3658 170.7310 15.73903338 74517
NSIGHT-1                
1 42726U 98067MF  18257.23178056  .00015073  00000-0  16829-3 0  9991
2 42726  51.6376 278.0184 0004016 200.8604 159.2227 15.62999048 74329
SNUSAT-1                
1 42727U 98067MG  18257.21755105  .00046268  00000-0  32216-3 0  9994
2 42727  51.6317 262.7051 0004028 150.7134 209.4091 15.73875260 74487
I-INSPIRE II            
1 42731U 98067ML  18257.19272534  .00108426  00000-0  47733-3 0  9991
2 42731  51.6329 251.9606 0003776 104.6609 255.4813 15.83707984 74510
POLYITAN-2-SAU          
1 42732U 98067MM  18257.20166706  .00066188  00000-0  39411-3 0  9999
2 42732  51.6318 258.0905 0004049 126.6530 233.4843 15.77312359 74431
SNUSAT-1B               
1 42733U 98067MN  18257.20293771  .00052803  00000-0  34965-3 0  9991
2 42733  51.6314 261.1373 0003842 136.8270 223.3031 15.74983698 74395
EXALTA-1                
1 42734U 98067MP  18257.23911215  .00143753  00000-0  57218-3 0  9996
2 42734  51.6249 250.6515 0002348 125.6278 234.4944 15.85700103 74484
BEEAGLESAT              
1 42736U 98067MR  18257.23353246  .00042152  00000-0  30763-3 0  9999
2 42736  51.6327 263.6038 0002879 191.9158 168.1773 15.72820421 74428
UCLSAT                  
1 42765U 17036A   18256.83625333  .00001347  00000-0  61819-4 0  9990
2 42765  97.3925 315.2251 0013254 121.9694 238.2833 15.22053190 68198
LITUANICASAT-2          
1 42768U 17036D   18256.72063418  .00002284  00000-0  10363-3 0  9999
2 42768  97.3941 314.6771 0017305 114.3626 245.9419 15.21696276 68025
AALTO-1                 
1 42775U 17036L   18257.12113225  .00000885  00000-0  43056-4 0  9995
2 42775  97.3915 314.8337 0015788 111.2209 249.0714 15.20884963 68013
URSA MAIOR              
1 42776U 17036M   18257.16852444  .00000965  00000-0  46517-4 0  9997
2 42776  97.3923 314.9507 0015633 111.1836 249.1071 15.20977631 68020
COMPASS 2               
1 42777U 17036N   18257.23575947  .00002032  00000-0  91838-4 0  9999
2 42777  97.3947 315.5584 0014496 113.5744 246.7016 15.22001358 68050
DIAMOND RED             
1 42783U 17036U   18257.12192371  .00001126  00000-0  52831-4 0  9993
2 42783  97.3925 315.3090 0013877 121.3486 238.9110 15.21631168 68038
PEGASUS                 
1 42784U 17036V   18256.22749997  .00001095  00000-0  51102-4 0  9991
2 42784  97.3928 314.5304 0013739 124.0870 236.1672 15.21851196 67908
DIAMOND GREEN           
1 42785U 17036W   18256.72611345  .00001054  00000-0  49614-4 0  9992
2 42785  97.3927 314.9361 0013748 123.0779 237.1779 15.21630682 67962
DIAMOND BLUE            
1 42786U 17036X   18256.39647695  .00001001  00000-0  47297-4 0  9990
2 42786  97.3928 314.6120 0013561 124.3070 235.9452 15.21630424 67918
NUDTSAT                 
1 42787U 17036Y   18256.83311698  .00002049  00000-0  91226-4 0  9995
2 42787  97.3932 315.4184 0013366 121.6861 238.5681 15.22514880 67858
SUCHAI                  
1 42788U 17036Z   18257.15440129  .00001494  00000-0  68027-4 0  9990
2 42788  97.3928 315.5793 0013399 120.8566 239.3990 15.22155816 68123
SKCUBE                  
1 42789U 17036AA  18256.30179047  .00001237  00000-0  56962-4 0  9995
2 42789  97.3928 314.7273 0013201 123.4813 236.7687 15.22100614 67910
VZLUSAT-1               
1 42790U 17036AB  18256.16415301  .00001626  00000-0  73000-4 0  9991
2 42790  97.3934 314.7668 0012848 123.8942 236.3518 15.22526180 67908
ROBUSTA-1B              
1 42792U 17036AD  18256.72206622  .00001378  00000-0  62832-4 0  9994
2 42792  97.3926 315.2212 0012786 122.8948 237.3521 15.22255890 67999
CICERO 6                
1 42793U 17036AE  18256.20132894  .00001024  00000-0  47790-4 0  9991
2 42793  97.3917 314.6714 0011871 125.2714 234.9635 15.22039517 67986
D-SAT                   
1 42794U 17036AF  18256.83716085  .00000185  00000-0  21764-4 0  9991
2 42794  97.5826 308.1019 0126571 347.9175  11.9015 14.90926464 66931
TOKI                    
1 42820U 98067MU  18257.23044036  .00040140  00000-0  30655-3 0  9992
2 42820  51.6327 266.5985 0002933 101.3833 258.7495 15.71769005 67845
MAZAALAI (NUMSAT-1)     
1 42822U 98067MW  18256.51957981  .00031819  00000-0  24886-3 0  9998
2 42822  51.6327 270.8621 0002717 101.8969 258.2334 15.71318359 67701
BRAC ONNESHA            
1 42823U 98067MX  18256.50827290  .00034687  00000-0  26865-3 0  9992
2 42823  51.6338 270.8098 0003712 138.9811 221.1467 15.71503588 67701
NIGERIAEDUSAT-1         
1 42824U 98067MY  18256.48275023  .00030594  00000-0  24073-3 0  9993
2 42824  51.6342 271.4112 0003665 138.9882 221.1392 15.71192315 67682
CORVUS BC2              
1 42846U 17042X   18256.27331407  .00000326  00000-0  37578-4 0  9992
2 42846  97.5875 155.9256 0008116 262.6520  97.3777 14.91854474 63500
CORVUS BC1              
1 42847U 17042Y   18256.51342036  .00000034  00000-0  86742-5 0  9994
2 42847  97.5874 156.2192 0007693 261.0255  99.0094 14.91953590 63533
